{"type":"FeatureCollection", "features": [
{"type":"Feature","geometry":{"type":"Polygon","coordinates":[[[10.115,36.8275],[10.1004,36.802],[10.0296,36.7986],[10.0409,36.7453],[10.0933,36.6969],[10.1864,36.7211],[10.2058,36.7785],[10.26,36.8085],[10.2854,36.8124],[10.3515,36.8755],[10.3205,36.9113],[10.2522,36.9432],[10.2836,36.9032],[10.1694,36.8405],[10.115,36.8275]]]},"properties":{"iso":"TN-11","name":"Tunis"}},
{"type":"Feature","geometry":{"type":"Polygon","coordinates":[[[10.26,36.8085],[10.2058,36.7785],[10.1864,36.7211],[10.0933,36.6969],[10.043,36.6227],[10.1453,36.5666],[10.1988,36.5124],[10.2708,36.5034],[10.2902,36.4648],[10.3477,36.4879],[10.3481,36.5339],[10.38,36.5655],[10.3721,36.6149],[10.4176,36.7166],[10.3385,36.7332],[10.2911,36.7747],[10.2854,36.8124],[10.26,36.8085]]]},"properties":{"iso":"TN-13","name":"Ben Arous"}},
{"type":"Feature","geometry":{"type":"Polygon","coordinates":[[[8.3765,36.3501],[8.3832,36.3029],[8.3379,36.2645],[8.3547,36.2324],[8.307,36.1744],[8.346,36.097],[8.2969,36.0402],[8.2905,35.9531],[8.2629,35.9376],[8.2535,35.8859],[8.2733,35.8198],[8.2643,35.7307],[8.356,35.6698],[8.354,35.6166],[8.3893,35.6159],[8.4173,35.6643],[8.5436,35.6674],[8.569,35.6373],[8.6284,35.6819],[8.6319,35.7431],[8.7004,35.7909],[8.7358,35.7704],[8.8203,35.7561],[8.9224,35.7161],[9.0124,35.7011],[9.0344,35.7302],[9.0305,35.8643],[9.0996,35.9113],[9.1161,35.9773],[9.1663,36.005],[9.1578,36.0848],[9.1138,36.1175],[9.0431,36.1372],[9.0437,36.2317],[8.9982,36.2414],[8.9453,36.3094],[8.9728,36.3648],[8.9397,36.4534],[8.9007,36.4257],[8.8154,36.4005],[8.7147,36.3944],[8.6616,36.4192],[8.5974,36.3944],[8.5616,36.401],[8.4339,36.3515],[8.3765,36.3501]]]},"properties":{"iso":"TN-33","name":"El Kef"}},
{"type":"Feature","geometry":{"type":"Polygon","coordinates":[[[10.1818,36.1379],[10.2043,36.1353],[10.2037,36.0566],[10.2555,36.0357],[10.2578,35.9797],[10.1612,35.8365],[10.2031,35.7645],[10.2128,35.7116],[10.2527,35.6815],[10.3073,35.585],[10.2929,35.5515],[10.3363,35.5022],[10.4511,35.4819],[10.4916,35.4087],[10.5429,35.409],[10.6133,35.4745],[10.4986,35.4866],[10.5,35.5568],[10.5389,35.5717],[10.5319,35.6095],[10.5937,35.6482],[10.668,35.7416],[10.6803,35.7813],[10.6021,35.8929],[10.5028,36.0002],[10.4714,36.099],[10.4692,36.1901],[10.4808,36.2438],[10.5296,36.3528],[10.5065,36.3918],[10.4546,36.3679],[10.3673,36.3829],[10.3815,36.3074],[10.3447,36.2361],[10.2662,36.1768],[10.1841,36.1579],[10.1818,36.1379]]]},"properties":{"iso":"TN-51","name":"Sousse"}},
{"type":"Feature","geometry":{"type":"MultiPolygon","coordinates":[[[[9.7111,34.2815],[9.7549,34.2201],[9.852,34.2277],[9.8916,34.1791],[9.9659,34.2111],[10.0183,34.1873],[10.0652,34.2313],[10.1222,34.3174],[10.2708,34.3732],[10.2871,34.4071],[10.3707,34.4186],[10.4459,34.4991],[10.598,34.5459],[10.6304,34.616],[10.7147,34.6403],[10.8237,34.7828],[10.9205,34.8837],[10.9277,34.9666],[11.0062,35.0144],[11.0215,35.0892],[10.9561,35.098],[10.8876,35.161],[10.8488,35.147],[10.8045,35.21],[10.7911,35.2738],[10.7112,35.2216],[10.629,35.2576],[10.562,35.2281],[10.592,35.1861],[10.5292,35.1427],[10.4764,35.1315],[10.4274,35.0889],[10.3641,35.1323],[10.2814,35.1303],[10.2229,35.153],[10.1502,35.1368],[10.0578,35.0577],[10.0633,35.0202],[10.0087,34.8971],[9.9786,34.8722],[9.8728,34.6073],[9.9706,34.5675],[9.98,34.5451],[10.0471,34.5224],[9.8984,34.4206],[9.8591,34.3702],[9.7795,34.3585],[9.7201,34.3331],[9.7111,34.2815]]],[[[10.9664,34.6567],[11.0474,34.6206],[11.1139,34.6675],[10.9926,34.6725],[10.9664,34.6567]]],[[[11.1218,34.6794],[11.2481,34.7109],[11.2985,34.7516],[11.2511,34.8061],[11.1218,34.6794]]]]},"properties":{"iso":"TN-61","name":"Sfax"}},
{"type":"Feature","geometry":{"type":"Polygon","coordinates":[[[8.9397,36.4534],[9.0162,36.4634],[9.0768,36.5508],[9.0689,36.5998],[9.0164,36.6656],[9.0276,36.7499],[8.9497,36.7644],[8.922,36.8163],[8.9942,36.8589],[9.001,36.8858],[8.9278,36.9236],[8.9262,36.9843],[8.8846,37.0086],[8.7831,36.9535],[8.7421,36.9696],[8.6421,36.9409],[8.6294,36.8606],[8.6694,36.8173],[8.5725,36.7732],[8.4841,36.7795],[8.47,36.7414],[8.4875,36.6973],[8.4468,36.6237],[8.4037,36.6165],[8.32,36.5571],[8.1553,36.4942],[8.176,36.4596],[8.4063,36.4231],[8.3765,36.3501],[8.4339,36.3515],[8.5616,36.401],[8.5974,36.3944],[8.6616,36.4192],[8.7147,36.3944],[8.8154,36.4005],[8.9007,36.4257],[8.9397,36.4534]]]},"properties":{"iso":"TN-32","name":"Jendouba"}},
{"type":"Feature","geometry":{"type":"Polygon","coordinates":[[[10.1818,36.1379],[10.1275,36.0843],[10.0526,36.0746],[10.0393,36.0017],[9.9681,36.0439],[9.9009,36.0426],[9.8078,36.1068],[9.7556,36.1136],[9.7533,36.0901],[9.6445,36.0162],[9.6305,35.9952],[9.5176,35.9123],[9.5192,35.8272],[9.4928,35.7887],[9.5376,35.7427],[9.4782,35.7319],[9.398,35.6879],[9.2808,35.7211],[9.2767,35.6875],[9.3893,35.596],[9.3983,35.5594],[9.4641,35.4931],[9.4891,35.4656],[9.4753,35.3602],[9.5271,35.3443],[9.5545,35.2749],[9.587,35.2848],[9.6916,35.2307],[9.6988,35.2007],[9.7478,35.1804],[9.8732,35.1661],[9.9676,35.2024],[10.0015,35.1645],[9.9941,35.0842],[10.0077,35.0425],[10.0633,35.0202],[10.0578,35.0577],[10.1502,35.1368],[10.2229,35.153],[10.2206,35.1976],[10.1744,35.2666],[10.2051,35.3205],[10.1606,35.357],[10.182,35.4215],[10.2208,35.443],[10.2573,35.4988],[10.2073,35.5537],[10.3073,35.585],[10.2527,35.6815],[10.2128,35.7116],[10.2031,35.7645],[10.1612,35.8365],[10.2578,35.9797],[10.2555,36.0357],[10.2037,36.0566],[10.2043,36.1353],[10.1818,36.1379]]]},"properties":{"iso":"TN-41","name":"Kairouan"}},
{"type":"Feature","geometry":{"type":"Polygon","coordinates":[[[8.354,35.6166],[8.3533,35.5821],[8.3844,35.4668],[8.3533,35.4631],[8.3245,35.4134],[8.3115,35.3151],[8.4545,35.2201],[8.3998,35.1279],[8.3572,35.0987],[8.3157,35.0092],[8.3076,34.9469],[8.253,34.9154],[8.2836,34.8213],[8.2838,34.7669],[8.3242,34.7328],[8.4427,34.6853],[8.5085,34.6406],[8.586,34.6304],[8.7303,34.7249],[8.9209,34.8102],[9.0593,34.8703],[9.0312,34.8992],[9.061,34.956],[9.1221,34.9954],[9.1836,35.0143],[9.2778,35.0249],[9.3239,35.0827],[9.2429,35.1376],[9.2749,35.2151],[9.1504,35.2879],[9.2105,35.3933],[9.3394,35.4785],[9.268,35.5535],[9.2143,35.5428],[9.1924,35.5943],[9.1147,35.6275],[9.088,35.6051],[9.0003,35.6315],[8.98,35.6868],[9.0124,35.7011],[8.9224,35.7161],[8.8203,35.7561],[8.7358,35.7704],[8.7004,35.7909],[8.6319,35.7431],[8.6284,35.6819],[8.569,35.6373],[8.5436,35.6674],[8.4173,35.6643],[8.3893,35.6159],[8.354,35.6166]]]},"properties":{"iso":"TN-42","name":"Kasserine"}},
{"type":"Feature","geometry":{"type":"Polygon","coordinates":[[[10.3073,35.585],[10.2073,35.5537],[10.2573,35.4988],[10.2208,35.443],[10.182,35.4215],[10.1606,35.357],[10.2051,35.3205],[10.1744,35.2666],[10.2206,35.1976],[10.2229,35.153],[10.2814,35.1303],[10.3641,35.1323],[10.4274,35.0889],[10.4764,35.1315],[10.5292,35.1427],[10.592,35.1861],[10.562,35.2281],[10.629,35.2576],[10.7112,35.2216],[10.7911,35.2738],[10.8045,35.21],[10.8488,35.147],[10.8876,35.161],[10.9561,35.098],[11.0215,35.0892],[11.0585,35.1591],[11.1086,35.2113],[11.158,35.2327],[11.1006,35.2669],[11.0341,35.3468],[11.06,35.4945],[11.0307,35.5544],[10.9374,35.5426],[10.8473,35.4836],[10.8429,35.4373],[10.8085,35.423],[10.7309,35.4745],[10.6133,35.4745],[10.5429,35.409],[10.4916,35.4087],[10.4511,35.4819],[10.3363,35.5022],[10.2929,35.5515],[10.3073,35.585]]]},"properties":{"iso":"TN-53","name":"Mahdia"}},
{"type":"Feature","geometry":{"type":"Polygon","coordinates":[[[10.115,36.8275],[10.0112,36.8971],[10.0005,36.918],[9.9444,36.9194],[9.9165,36.9495],[9.8388,36.9612],[9.7793,36.9206],[9.7133,36.9021],[9.6444,36.8619],[9.567,36.8434],[9.6138,36.7784],[9.7847,36.7082],[9.7854,36.6466],[9.864,36.575],[9.9025,36.553],[9.9808,36.6175],[10.043,36.6227],[10.0933,36.6969],[10.0409,36.7453],[10.0296,36.7986],[10.1004,36.802],[10.115,36.8275]]]},"properties":{"iso":"TN-14","name":"Manouba"}},
{"type":"Feature","geometry":{"type":"Polygon","coordinates":[[[10.0633,35.0202],[10.0077,35.0425],[9.9941,35.0842],[10.0015,35.1645],[9.9676,35.2024],[9.8732,35.1661],[9.7478,35.1804],[9.6988,35.2007],[9.6916,35.2307],[9.587,35.2848],[9.5545,35.2749],[9.5271,35.3443],[9.4753,35.3602],[9.4891,35.4656],[9.4641,35.4931],[9.3394,35.4785],[9.2105,35.3933],[9.1504,35.2879],[9.2749,35.2151],[9.2429,35.1376],[9.3239,35.0827],[9.2778,35.0249],[9.1836,35.0143],[9.1221,34.9954],[9.061,34.956],[9.0312,34.8992],[9.0593,34.8703],[8.9209,34.8102],[8.9521,34.754],[9.0033,34.7096],[9.0787,34.689],[9.1472,34.7143],[9.1906,34.693],[9.2278,34.7083],[9.2819,34.6602],[9.2548,34.5787],[9.3336,34.5354],[9.3126,34.5079],[9.4047,34.4996],[9.4887,34.446],[9.5073,34.3817],[9.5385,34.3517],[9.5486,34.2647],[9.7111,34.2815],[9.7201,34.3331],[9.7795,34.3585],[9.8591,34.3702],[9.8984,34.4206],[10.0471,34.5224],[9.98,34.5451],[9.9706,34.5675],[9.8728,34.6073],[9.9786,34.8722],[10.0087,34.8971],[10.0633,35.0202]]]},"properties":{"iso":"TN-43","name":"Sidi Bouzid"}},
{"type":"Feature","geometry":{"type":"Polygon","coordinates":[[[7.7366,33.4247],[7.7326,33.3747],[7.7778,33.3236],[7.8322,33.1881],[7.9057,33.1845],[8.1173,33.0998],[8.1161,33.0498],[8.2472,32.9244],[8.3226,32.8235],[8.3568,32.5026],[9.2113,32.6489],[9.4715,32.7069],[9.5595,32.755],[9.6793,32.7833],[9.7099,32.8006],[9.7704,32.7853],[9.8041,32.7316],[9.901,32.6831],[9.935,32.6476],[9.9656,32.6783],[9.8975,32.7281],[9.9714,32.8556],[9.9432,32.8888],[9.9366,33.0036],[9.9068,33.0665],[9.9166,33.1984],[9.7902,33.2201],[9.7096,33.284],[9.6483,33.3502],[9.6223,33.4192],[9.5708,33.4397],[9.5314,33.4975],[9.5598,33.5541],[9.539,33.6353],[9.4637,33.6244],[9.4431,33.684],[9.3509,33.7106],[9.3339,33.7728],[9.2722,33.8704],[9.2481,33.9292],[9.2537,34.0318],[9.272,34.0732],[9.3275,34.1066],[9.2756,34.1413],[9.2474,34.1854],[9.1282,34.1652],[9.0441,34.1288],[8.9571,34.1158],[8.8554,34.1206],[8.8444,34.095],[8.7469,34.096],[8.6537,34.0787],[8.6477,34.0608],[8.63,34.0151],[8.5467,33.9237],[8.4472,33.8606],[8.3178,33.7568],[8.2245,33.7177],[8.0286,33.574],[7.8474,33.4566],[7.7366,33.4247]]]},"properties":{"iso":"TN-73","name":"Kébili"}},
{"type":"Feature","geometry":{"type":"Polygon","coordinates":[[[9.0162,36.4634],[9.1119,36.3966],[9.2531,36.3707],[9.3232,36.3761],[9.3812,36.4403],[9.4219,36.4596],[9.5094,36.4638],[9.5692,36.426],[9.6426,36.4212],[9.7392,36.4507],[9.7971,36.5236],[9.864,36.575],[9.7854,36.6466],[9.7847,36.7082],[9.6138,36.7784],[9.567,36.8434],[9.5155,36.7865],[9.401,36.7234],[9.345,36.7666],[9.3845,36.8494],[9.2678,36.8951],[9.1872,37.0506],[9.1063,37.0473],[9.0746,37.0821],[9.1038,37.1303],[9.0821,37.157],[9.0262,37.1374],[8.9544,37.0621],[8.8846,37.0086],[8.9262,36.9843],[8.9278,36.9236],[9.001,36.8858],[8.9942,36.8589],[8.922,36.8163],[8.9497,36.7644],[9.0276,36.7499],[9.0164,36.6656],[9.0689,36.5998],[9.0768,36.5508],[9.0162,36.4634]]]},"properties":{"iso":"TN-31","name":"Béja"}},
{"type":"Feature","geometry":{"type":"Polygon","coordinates":[[[8.3568,32.5026],[8.8003,32.2362],[9.0653,32.0874],[9.0985,31.9994],[9.1975,31.6363],[9.3596,31],[9.4738,30.559],[9.5585,30.2302],[9.8318,30.3372],[9.8775,30.3369],[9.9441,30.3834],[10.0171,30.4792],[10.0696,30.5084],[10.2019,30.6935],[10.2721,30.8005],[10.2973,30.8866],[10.2751,31.0408],[10.2941,31.0913],[10.1663,31.377],[10.139,31.4901],[10.2123,31.566],[10.3118,31.7031],[10.3861,31.7405],[10.4484,31.7303],[10.5268,31.7408],[10.6349,31.8793],[10.6126,31.9163],[10.6582,31.9777],[10.7223,31.9677],[10.7951,31.9981],[10.861,32.0856],[10.8614,32.1053],[11.0292,32.1997],[11.1553,32.2499],[11.1812,32.3063],[11.2567,32.33],[11.3354,32.373],[11.3255,32.3985],[11.2257,32.3767],[11.2023,32.4081],[11.0848,32.6756],[11.1267,32.7177],[11.1097,32.815],[11.1153,32.8659],[11.0456,32.9913],[11.0335,33.0535],[11.0059,33.079],[10.8976,33.0933],[10.702,33.0962],[10.559,33.1122],[10.5664,33.1596],[10.6139,33.2037],[10.4906,33.2147],[10.4058,33.1942],[10.2452,33.1366],[10.1605,33.081],[10.0831,33.0596],[9.9068,33.0665],[9.9366,33.0036],[9.9432,32.8888],[9.9714,32.8556],[9.8975,32.7281],[9.9656,32.6783],[9.935,32.6476],[9.901,32.6831],[9.8041,32.7316],[9.7704,32.7853],[9.7099,32.8006],[9.6793,32.7833],[9.5595,32.755],[9.4715,32.7069],[9.2113,32.6489],[8.3568,32.5026]]]},"properties":{"iso":"TN-83","name":"Tataouine"}},
{"type":"Feature","geometry":{"type":"Polygon","coordinates":[[[9.7111,34.2815],[9.5486,34.2647],[9.5223,34.2279],[9.4256,34.2122],[9.3184,34.2206],[9.2474,34.1854],[9.2756,34.1413],[9.3275,34.1066],[9.272,34.0732],[9.2537,34.0318],[9.2481,33.9292],[9.2722,33.8704],[9.3339,33.7728],[9.3509,33.7106],[9.4431,33.684],[9.4637,33.6244],[9.539,33.6353],[9.5598,33.5541],[9.5314,33.4975],[9.5708,33.4397],[9.6223,33.4192],[9.6483,33.3502],[9.7096,33.284],[9.7916,33.2699],[9.9291,33.2996],[10.0007,33.2932],[10.1066,33.3461],[10.1575,33.4087],[10.2775,33.4293],[10.3327,33.4898],[10.3602,33.5547],[10.4248,33.6356],[10.4002,33.6707],[10.3319,33.709],[10.2423,33.7871],[10.1815,33.8245],[10.0856,33.9307],[10.0371,34.0357],[10.0183,34.1873],[9.9659,34.2111],[9.8916,34.1791],[9.852,34.2277],[9.7549,34.2201],[9.7111,34.2815]]]},"properties":{"iso":"TN-81","name":"Gabès"}},
{"type":"Feature","geometry":{"type":"Polygon","coordinates":[[[10.0005,36.918],[10.0363,36.9873],[10.066,37.0067],[10.12,37.1126],[10.2163,37.1112],[10.1421,37.1298],[10.1502,37.1633],[10.2086,37.1971],[10.068,37.269],[9.9261,37.2263],[9.9127,37.1567],[9.8646,37.1349],[9.8127,37.1421],[9.7749,37.2042],[9.7806,37.2362],[9.8851,37.2797],[9.8655,37.332],[9.802,37.3275],[9.7558,37.347],[9.6683,37.3378],[9.5608,37.3059],[9.4563,37.263],[9.4084,37.2695],[9.3308,37.2312],[9.2549,37.2161],[9.1891,37.2236],[9.1187,37.1604],[9.0821,37.157],[9.1038,37.1303],[9.0746,37.0821],[9.1063,37.0473],[9.1872,37.0506],[9.2678,36.8951],[9.3845,36.8494],[9.345,36.7666],[9.401,36.7234],[9.5155,36.7865],[9.567,36.8434],[9.6444,36.8619],[9.7133,36.9021],[9.7793,36.9206],[9.8388,36.9612],[9.9165,36.9495],[9.9444,36.9194],[10.0005,36.918]]]},"properties":{"iso":"TN-23","name":"Bizerte"}},
{"type":"Feature","geometry":{"type":"Polygon","coordinates":[[[10.2522,36.9432],[10.2058,36.9813],[10.1781,37.0452],[10.2163,37.1112],[10.12,37.1126],[10.066,37.0067],[10.0363,36.9873],[10.0005,36.918],[10.0112,36.8971],[10.115,36.8275],[10.1694,36.8405],[10.2836,36.9032],[10.2522,36.9432]]]},"properties":{"iso":"TN-12","name":"Ariana"}},
{"type":"Feature","geometry":{"type":"Polygon","coordinates":[[[10.3477,36.4879],[10.3444,36.4235],[10.3673,36.3829],[10.4546,36.3679],[10.5065,36.3918],[10.5296,36.3528],[10.5673,36.3936],[10.6166,36.3922],[10.724,36.4397],[10.8085,36.4568],[10.874,36.5818],[10.9381,36.68],[11.0231,36.787],[11.1367,36.8748],[11.1069,36.9033],[11.0987,36.9565],[11.0573,37.0222],[11.075,37.051],[11.0316,37.0773],[10.9746,37.0498],[10.9325,37.0517],[10.8742,36.9773],[10.7587,36.9053],[10.6938,36.8783],[10.5857,36.8637],[10.5369,36.7575],[10.4176,36.7166],[10.3721,36.6149],[10.38,36.5655],[10.3481,36.5339],[10.3477,36.4879]]]},"properties":{"iso":"TN-21","name":"Nabeul"}},
{"type":"Feature","geometry":{"type":"Polygon","coordinates":[[[10.6133,35.4745],[10.7309,35.4745],[10.8085,35.423],[10.8429,35.4373],[10.8473,35.4836],[10.9374,35.5426],[11.0307,35.5544],[11.0469,35.6268],[10.858,35.6842],[10.8169,35.7211],[10.8436,35.7686],[10.8065,35.7851],[10.7465,35.7651],[10.6803,35.7813],[10.668,35.7416],[10.5937,35.6482],[10.5319,35.6095],[10.5389,35.5717],[10.5,35.5568],[10.4986,35.4866],[10.6133,35.4745]]]},"properties":{"iso":"TN-52","name":"Monastir"}},
{"type":"Feature","geometry":{"type":"Polygon","coordinates":[[[9.0124,35.7011],[8.98,35.6868],[9.0003,35.6315],[9.088,35.6051],[9.1147,35.6275],[9.1924,35.5943],[9.2143,35.5428],[9.268,35.5535],[9.3394,35.4785],[9.4641,35.4931],[9.3983,35.5594],[9.3893,35.596],[9.2767,35.6875],[9.2808,35.7211],[9.398,35.6879],[9.4782,35.7319],[9.5376,35.7427],[9.4928,35.7887],[9.5192,35.8272],[9.5176,35.9123],[9.6305,35.9952],[9.6445,36.0162],[9.7533,36.0901],[9.7556,36.1136],[9.72,36.1985],[9.6551,36.2157],[9.5977,36.2501],[9.6367,36.2886],[9.724,36.3147],[9.7546,36.3564],[9.7392,36.4507],[9.6426,36.4212],[9.5692,36.426],[9.5094,36.4638],[9.4219,36.4596],[9.3812,36.4403],[9.3232,36.3761],[9.2531,36.3707],[9.1119,36.3966],[9.0162,36.4634],[8.9397,36.4534],[8.9728,36.3648],[8.9453,36.3094],[8.9982,36.2414],[9.0437,36.2317],[9.0431,36.1372],[9.1138,36.1175],[9.1578,36.0848],[9.1663,36.005],[9.1161,35.9773],[9.0996,35.9113],[9.0305,35.8643],[9.0344,35.7302],[9.0124,35.7011]]]},"properties":{"iso":"TN-34","name":"Siliana"}},
{"type":"Feature","geometry":{"type":"Polygon","coordinates":[[[10.043,36.6227],[9.9808,36.6175],[9.9025,36.553],[9.864,36.575],[9.7971,36.5236],[9.7392,36.4507],[9.7546,36.3564],[9.724,36.3147],[9.6367,36.2886],[9.5977,36.2501],[9.6551,36.2157],[9.72,36.1985],[9.7556,36.1136],[9.8078,36.1068],[9.9009,36.0426],[9.9681,36.0439],[10.0393,36.0017],[10.0526,36.0746],[10.1275,36.0843],[10.1818,36.1379],[10.1841,36.1579],[10.2662,36.1768],[10.3447,36.2361],[10.3815,36.3074],[10.3673,36.3829],[10.3444,36.4235],[10.3477,36.4879],[10.2902,36.4648],[10.2708,36.5034],[10.1988,36.5124],[10.1453,36.5666],[10.043,36.6227]]]},"properties":{"iso":"TN-22","name":"Zaghouan"}},
{"type":"Feature","geometry":{"type":"Polygon","coordinates":[[[8.3242,34.7328],[8.2931,34.7296],[8.2371,34.6767],[8.2651,34.6443],[8.2098,34.5853],[8.1377,34.5324],[8.1012,34.4477],[8.0952,34.3989],[8.0417,34.3286],[8.122,34.2616],[8.1541,34.2026],[8.2896,34.1523],[8.324,34.1582],[8.3489,34.0531],[8.4874,34.0679],[8.6477,34.0608],[8.6537,34.0787],[8.7469,34.096],[8.8444,34.095],[8.8554,34.1206],[8.9571,34.1158],[9.0441,34.1288],[9.1282,34.1652],[9.2474,34.1854],[9.3184,34.2206],[9.4256,34.2122],[9.5223,34.2279],[9.5486,34.2647],[9.5385,34.3517],[9.5073,34.3817],[9.4887,34.446],[9.4047,34.4996],[9.3126,34.5079],[9.3336,34.5354],[9.2548,34.5787],[9.2819,34.6602],[9.2278,34.7083],[9.1906,34.693],[9.1472,34.7143],[9.0787,34.689],[9.0033,34.7096],[8.9521,34.754],[8.9209,34.8102],[8.7303,34.7249],[8.586,34.6304],[8.5085,34.6406],[8.4427,34.6853],[8.3242,34.7328]]]},"properties":{"iso":"TN-71","name":"Gafsa"}},
{"type":"Feature","geometry":{"type":"MultiPolygon","coordinates":[[[[9.9068,33.0665],[10.0831,33.0596],[10.1605,33.081],[10.2452,33.1366],[10.4058,33.1942],[10.4906,33.2147],[10.6139,33.2037],[10.5664,33.1596],[10.559,33.1122],[10.702,33.0962],[10.8976,33.0933],[11.0059,33.079],[11.0335,33.0535],[11.0456,32.9913],[11.1153,32.8659],[11.1097,32.815],[11.1267,32.7177],[11.0848,32.6756],[11.2023,32.4081],[11.2257,32.3767],[11.3255,32.3985],[11.3354,32.373],[11.2567,32.33],[11.1812,32.3063],[11.1553,32.2499],[11.3728,32.3414],[11.4621,32.369],[11.5489,32.4086],[11.595,32.4545],[11.5999,32.5192],[11.5517,32.5808],[11.5014,32.6121],[11.4779,32.6559],[11.4943,32.6957],[11.4875,32.7624],[11.5014,32.8303],[11.4955,32.9179],[11.5277,32.9862],[11.527,33.0783],[11.5605,33.1401],[11.5242,33.1691],[11.4423,33.1956],[11.3704,33.1802],[11.2632,33.2061],[11.1854,33.2025],[11.1252,33.3091],[11.1749,33.3295],[11.0925,33.4353],[11.1205,33.4818],[11.1049,33.5621],[11.0477,33.6248],[11.0043,33.6403],[10.9215,33.6198],[10.9479,33.5694],[10.9249,33.5288],[10.7485,33.4725],[10.6995,33.4912],[10.6878,33.5579],[10.7206,33.5755],[10.7451,33.6774],[10.6976,33.7055],[10.6433,33.6746],[10.5543,33.6496],[10.4248,33.6356],[10.3602,33.5547],[10.3327,33.4898],[10.2775,33.4293],[10.1575,33.4087],[10.1066,33.3461],[10.0007,33.2932],[9.9291,33.2996],[9.7916,33.2699],[9.7096,33.284],[9.7902,33.2201],[9.9166,33.1984],[9.9068,33.0665]]],[[[10.7275,33.7636],[10.761,33.6995],[10.8317,33.7355],[10.8773,33.69],[10.9159,33.6784],[10.9555,33.7254],[11.0603,33.7824],[11.0213,33.8308],[10.9457,33.8864],[10.8757,33.8777],[10.8053,33.9004],[10.7442,33.8882],[10.7494,33.7982],[10.7275,33.7636]]]]},"properties":{"iso":"TN-82","name":"Médenine"}},
{"type":"Feature","geometry":{"type":"Polygon","coordinates":[[[8.6477,34.0608],[8.4874,34.0679],[8.3489,34.0531],[8.324,34.1582],[8.2896,34.1523],[8.1541,34.2026],[8.122,34.2616],[8.0417,34.3286],[8.0952,34.3989],[8.1012,34.4477],[8.1377,34.5324],[8.043,34.4934],[8.0112,34.4581],[7.9533,34.4474],[7.9327,34.4199],[7.8565,34.4053],[7.8535,34.3558],[7.8186,34.2662],[7.816,34.2135],[7.7328,34.1698],[7.6552,34.1974],[7.6141,34.1137],[7.5303,34.0611],[7.5604,34.0146],[7.522,33.9051],[7.5472,33.8368],[7.5254,33.7983],[7.5622,33.7774],[7.5648,33.7272],[7.6339,33.5721],[7.7366,33.4247],[7.8474,33.4566],[8.0286,33.574],[8.2245,33.7177],[8.3178,33.7568],[8.4472,33.8606],[8.5467,33.9237],[8.63,34.0151],[8.6477,34.0608]]]},"properties":{"iso":"TN-72","name":"Tozeur"}}
]}